STARLINK-1559           
1 46077U 20055BC  26068.23360559  .00042685  00000+0  14779-2 0  9995
2 46077  53.0254  76.0659 0004229  33.9710 326.1559 15.29461733309518
STARLINK-2122           
1 47400U 21005BD  26068.16379774  .00011306  00000+0  39300-3 0  9997
2 47400  53.1610  15.9494 0001349  87.1367 272.9788 15.30221389283644
